LANDSAT 9               
1 49260U 21088A   23260.11118610  .00000647  00000+0  15371-3 0  9998
2 49260  98.2222 328.8712 0001368  94.8009 265.3345 14.57111477104772
